start=new Date('2022-02-06T00:00:00.000Z').valueOf();
sats=[{"RCS_SIZE":"LARGE","TLE_LINE1":"1 49432U 21104AA  22036.58334491 -.00655483  00000-0 -26683-1 0  9999","COUNTRY_CODE":"US","REV_AT_EPOCH":"365","RA_OF_ASC_NODE":"82.7447","MEAN_ANOMALY":"285.8813","REF_FRAME":"TEME","MEAN_MOTION_DDOT":"0.0000000000000","TIME_SYSTEM":"UTC","EPHEMERIS_TYPE":"0","PERIOD":"94.333","CENTER_NAME":"EARTH","SITE":"AFETR","TLE_LINE2":"2 49432  53.2174  82.7447 0001653  41.4978 285.8813 15.26507324  3650","ECCENTRICITY":"0.00016530","OBJECT_NAME":"STARLINK-3158","APOAPSIS":"487.400","SEMIMAJOR_AXIS":"6864.400","ARG_OF_PERICENTER":"41.4978","ELEMENT_SET_NO":"999","MEAN_MOTION":"15.26507324","PERIAPSIS":"485.130","OBJECT_TYPE":"PAYLOAD","OBJECT_ID":"2021-104AA","DECAY_DATE":null,"MEAN_MOTION_DOT":"-0.00655483","LAUNCH_DATE":"2021-11-13","INCLINATION":"53.2174","FILE":"3292709","NORAD_CAT_ID":"49432","MEAN_ELEMENT_THEORY":"SGP4","BSTAR":"-0.02668300000000","CLASSIFICATION_TYPE":"U","GP_ID":"195370808","EPOCH":"2022-02-05T14:00:01.000224"},{"COUNTRY_CODE":"US","REV_AT_EPOCH":"369","RCS_SIZE":"LARGE","TLE_LINE1":"1 49433U 21104AB  22036.58334491 -.00653351  00000-0 -98076-2 0  9998","TIME_SYSTEM":"UTC","MEAN_ANOMALY":"231.3229","RA_OF_ASC_NODE":"77.7540","REF_FRAME":"TEME","MEAN_MOTION_DDOT":"0.0000000000000","ECCENTRICITY":"0.00010710","TLE_LINE2":"2 49433  53.2173  77.7540 0001071  90.2452 231.3229 15.56525107  3694","PERIOD":"92.514","EPHEMERIS_TYPE":"0","CENTER_NAME":"EARTH","SITE":"AFETR","ARG_OF_PERICENTER":"90.2452","SEMIMAJOR_AXIS":"6775.860","APOAPSIS":"398.451","OBJECT_NAME":"STARLINK-3079","MEAN_MOTION":"15.56525107","PERIAPSIS":"396.999","ELEMENT_SET_NO":"999","DECAY_DATE":null,"OBJECT_TYPE":"PAYLOAD","OBJECT_ID":"2021-104AB","FILE":"3292709","INCLINATION":"53.2173","NORAD_CAT_ID":"49433","MEAN_MOTION_DOT":"-0.00653351","LAUNCH_DATE":"2021-11-13","EPOCH":"2022-02-05T14:00:01.000224","GP_ID":"195371053","BSTAR":"-0.00980760000000","MEAN_ELEMENT_THEORY":"SGP4","CLASSIFICATION_TYPE":"U"},{"EPHEMERIS_TYPE":"0","PERIOD":"95.437","SITE":"AFETR","CENTER_NAME":"EARTH","TLE_LINE2":"2 49434  53.2177  90.4233 0001626  45.1338 166.3175 15.08843942 14357","ECCENTRICITY":"0.00016260","OBJECT_NAME":"STARLINK-3134","APOAPSIS":"540.858","SEMIMAJOR_AXIS":"6917.868","ARG_OF_PERICENTER":"45.1338","RCS_SIZE":"LARGE","TLE_LINE1":"1 49434U 21104AC  22036.91668981 -.00027617  00000-0 -17236-2 0  9999","COUNTRY_CODE":"US","REV_AT_EPOCH":"1435","RA_OF_ASC_NODE":"90.4233","MEAN_ANOMALY":"166.3175","MEAN_MOTION_DDOT":"0.0000000000000","REF_FRAME":"TEME","TIME_SYSTEM":"UTC","MEAN_MOTION_DOT":"-0.00027617","LAUNCH_DATE":"2021-11-13","FILE":"3292986","INCLINATION":"53.2177","NORAD_CAT_ID":"49434","MEAN_ELEMENT_THEORY":"SGP4","BSTAR":"-0.00172360000000","CLASSIFICATION_TYPE":"U","GP_ID":"195377995","EPOCH":"2022-02-05T22:00:01.999584","ELEMENT_SET_NO":"999","MEAN_MOTION":"15.08843942","PERIAPSIS":"538.608","OBJECT_ID":"2021-104AC","OBJECT_TYPE":"PAYLOAD","DECAY_DATE":null},{"APOAPSIS":"423.740","SEMIMAJOR_AXIS":"6800.690","ARG_OF_PERICENTER":"39.3465","OBJECT_NAME":"STARLINK-3117","TLE_LINE2":"2 49435  53.2169  80.4425 0001743  39.3465 351.6820 15.48008433  3634","ECCENTRICITY":"0.00017430","SITE":"AFETR","CENTER_NAME":"EARTH","EPHEMERIS_TYPE":"0","PERIOD":"93.023","TIME_SYSTEM":"UTC","REF_FRAME":"TEME","MEAN_MOTION_DDOT":"0.0000000000000","RA_OF_ASC_NODE":"80.4425","MEAN_ANOMALY":"351.6820","REV_AT_EPOCH":"363","COUNTRY_CODE":"US","TLE_LINE1":"1 49435U 21104AD  22036.58334491 -.00139555  00000-0 -26651-2 0  9995","RCS_SIZE":"LARGE","GP_ID":"195369557","EPOCH":"2022-02-05T14:00:01.000224","CLASSIFICATION_TYPE":"U","MEAN_ELEMENT_THEORY":"SGP4","BSTAR":"-0.00266510000000","NORAD_CAT_ID":"49435","INCLINATION":"53.2169","FILE":"3292709","LAUNCH_DATE":"2021-11-13","MEAN_MOTION_DOT":"-0.00139555","OBJECT_ID":"2021-104AD","OBJECT_TYPE":"PAYLOAD","DECAY_DATE":null,"PERIAPSIS":"421.369","MEAN_MOTION":"15.48008433","ELEMENT_SET_NO":"999"},{"TIME_SYSTEM":"UTC","MEAN_ANOMALY":"258.3197","RA_OF_ASC_NODE":"77.7547","REF_FRAME":"TEME","MEAN_MOTION_DDOT":"0.0000000000000","COUNTRY_CODE":"US","REV_AT_EPOCH":"369","RCS_SIZE":"LARGE","TLE_LINE1":"1 49436U 21104AE  22036.58334491 -.00653506  00000-0 -98520-2 0  9997","SEMIMAJOR_AXIS":"6776.194","ARG_OF_PERICENTER":"57.3544","APOAPSIS":"398.901","OBJECT_NAME":"STARLINK-3049","ECCENTRICITY":"0.00012420","TLE_LINE2":"2 49436  53.2173  77.7547 0001242  57.3544 258.3197 15.56410031  3692","EPHEMERIS_TYPE":"0","PERIOD":"92.521","CENTER_NAME":"EARTH","SITE":"AFETR","DECAY_DATE":null,"OBJECT_ID":"2021-104AE","OBJECT_TYPE":"PAYLOAD","MEAN_MOTION":"15.56410031","PERIAPSIS":"397.217","ELEMENT_SET_NO":"999","EPOCH":"2022-02-05T14:00:01.000224","GP_ID":"195370309","BSTAR":"-0.00985200000000","MEAN_ELEMENT_THEORY":"SGP4","CLASSIFICATION_TYPE":"U","INCLINATION":"53.2173","FILE":"3292709","NORAD_CAT_ID":"49436","MEAN_MOTION_DOT":"-0.00653506","LAUNCH_DATE":"2021-11-13"},{"TLE_LINE1":"1 49437U 21104AF  22036.58334491 -.00653607  00000-0 -97715-2 0  9995","RCS_SIZE":"LARGE","REV_AT_EPOCH":"369","COUNTRY_CODE":"US","REF_FRAME":"TEME","MEAN_MOTION_DDOT":"0.0000000000000","RA_OF_ASC_NODE":"77.7516","MEAN_ANOMALY":"256.4080","TIME_SYSTEM":"UTC","CENTER_NAME":"EARTH","SITE":"AFETR","PERIOD":"92.507","EPHEMERIS_TYPE":"0","TLE_LINE2":"2 49437  53.2173  77.7516 0001098  71.7156 256.4080 15.56634739  3690","ECCENTRICITY":"0.00010980","OBJECT_NAME":"STARLINK-3130","APOAPSIS":"398.151","SEMIMAJOR_AXIS":"6775.542","ARG_OF_PERICENTER":"71.7156","ELEMENT_SET_NO":"999","PERIAPSIS":"396.663","MEAN_MOTION":"15.56634739","OBJECT_TYPE":"PAYLOAD","OBJECT_ID":"2021-104AF","DECAY_DATE":null,"LAUNCH_DATE":"2021-11-13","MEAN_MOTION_DOT":"-0.00653607","NORAD_CAT_ID":"49437","FILE":"3292709","INCLINATION":"53.2173","CLASSIFICATION_TYPE":"U","MEAN_ELEMENT_THEORY":"SGP4","BSTAR":"-0.00977150000000","GP_ID":"195370554","EPOCH":"2022-02-05T14:00:01.000224"},{"GP_ID":"195369807","EPOCH":"2022-02-05T14:00:01.000224","CLASSIFICATION_TYPE":"U","MEAN_ELEMENT_THEORY":"SGP4","BSTAR":"-0.00973640000000","NORAD_CAT_ID":"49438","FILE":"3292709","INCLINATION":"53.2173","LAUNCH_DATE":"2021-11-13","MEAN_MOTION_DOT":"-0.00654060","OBJECT_ID":"2021-104AG","OBJECT_TYPE":"PAYLOAD","DECAY_DATE":null,"PERIAPSIS":"396.264","MEAN_MOTION":"15.56750131","ELEMENT_SET_NO":"999","APOAPSIS":"397.880","ARG_OF_PERICENTER":"57.8402","SEMIMAJOR_AXIS":"6775.207","OBJECT_NAME":"STARLINK-3044","TLE_LINE2":"2 49438  53.2173  77.7501 0001192  57.8402 276.1109 15.56750131  3695","ECCENTRICITY":"0.00011920","SITE":"AFETR","CENTER_NAME":"EARTH","PERIOD":"92.500","EPHEMERIS_TYPE":"0","TIME_SYSTEM":"UTC","REF_FRAME":"TEME","MEAN_MOTION_DDOT":"0.0000000000000","RA_OF_ASC_NODE":"77.7501","MEAN_ANOMALY":"276.1109","REV_AT_EPOCH":"369","COUNTRY_CODE":"US","TLE_LINE1":"1 49438U 21104AG  22036.58334491 -.00654060  00000-0 -97364-2 0  9990","RCS_SIZE":"LARGE"},{"EPHEMERIS_TYPE":"0","PERIOD":"92.494","SITE":"AFETR","CENTER_NAME":"EARTH","ECCENTRICITY":"0.00016600","TLE_LINE2":"2 49439  53.2175  76.1321 0001660  31.4311  40.7839 15.56859027 14565","OBJECT_NAME":"STARLINK-3108","SEMIMAJOR_AXIS":"6774.891","ARG_OF_PERICENTER":"31.4311","APOAPSIS":"397.881","RCS_SIZE":"LARGE","TLE_LINE1":"1 49439U 21104AH  22036.91668981 -.00654476  00000-0 -97022-2 0  9994","COUNTRY_CODE":"US","REV_AT_EPOCH":"1456","MEAN_ANOMALY":"40.7839","RA_OF_ASC_NODE":"76.1321","REF_FRAME":"TEME","MEAN_MOTION_DDOT":"0.0000000000000","TIME_SYSTEM":"UTC","MEAN_MOTION_DOT":"-0.00654476","LAUNCH_DATE":"2021-11-13","INCLINATION":"53.2175","FILE":"3292913","NORAD_CAT_ID":"49439","BSTAR":"-0.00970220000000","MEAN_ELEMENT_THEORY":"SGP4","CLASSIFICATION_TYPE":"U","EPOCH":"2022-02-05T22:00:01.999584","GP_ID":"195377073","ELEMENT_SET_NO":"999","MEAN_MOTION":"15.56859027","PERIAPSIS":"395.631","DECAY_DATE":null,"OBJECT_TYPE":"PAYLOAD","OBJECT_ID":"2021-104AH"},{"TLE_LINE2":"2 49440  53.2175  76.1373 0001458  38.1695  10.6594 15.56398579 14540","ECCENTRICITY":"0.00014580","CENTER_NAME":"EARTH","SITE":"AFETR","PERIOD":"92.521","EPHEMERIS_TYPE":"0","APOAPSIS":"399.080","SEMIMAJOR_AXIS":"6776.227","ARG_OF_PERICENTER":"38.1695","OBJECT_NAME":"STARLINK-3105","REV_AT_EPOCH":"1454","COUNTRY_CODE":"US","TLE_LINE1":"1 49440U 21104AJ  22036.91668981 -.00654726  00000-0 -98756-2 0  9999","RCS_SIZE":"LARGE","TIME_SYSTEM":"UTC","REF_FRAME":"TEME","MEAN_MOTION_DDOT":"0.0000000000000","RA_OF_ASC_NODE":"76.1373","MEAN_ANOMALY":"10.6594","NORAD_CAT_ID":"49440","FILE":"3292952","INCLINATION":"53.2175","LAUNCH_DATE":"2021-11-13","MEAN_MOTION_DOT":"-0.00654726","GP_ID":"195377624","EPOCH":"2022-02-05T22:00:01.999584","CLASSIFICATION_TYPE":"U","MEAN_ELEMENT_THEORY":"SGP4","BSTAR":"-0.00987560000000","PERIAPSIS":"397.104","MEAN_MOTION":"15.56398579","ELEMENT_SET_NO":"999","OBJECT_ID":"2021-104AJ","OBJECT_TYPE":"PAYLOAD","DECAY_DATE":null},{"GP_ID":"195371054","EPOCH":"2022-02-05T14:00:01.000224","CLASSIFICATION_TYPE":"U","MEAN_ELEMENT_THEORY":"SGP4","BSTAR":"-0.00949640000000","NORAD_CAT_ID":"49441","FILE":"3292709","INCLINATION":"53.2173","LAUNCH_DATE":"2021-11-13","MEAN_MOTION_DOT":"-0.00654693","OBJECT_ID":"2021-104AK","OBJECT_TYPE":"PAYLOAD","DECAY_DATE":null,"PERIAPSIS":"394.189","MEAN_MOTION":"15.57441222","ELEMENT_SET_NO":"999","APOAPSIS":"395.946","ARG_OF_PERICENTER":"46.9732","SEMIMAJOR_AXIS":"6773.203","OBJECT_NAME":"STARLINK-3128","TLE_LINE2":"2 49441  53.2173  77.7421 0001297  46.9732 321.2278 15.57441222  3699","ECCENTRICITY":"0.00012970","CENTER_NAME":"EARTH","SITE":"AFETR","PERIOD":"92.459","EPHEMERIS_TYPE":"0","TIME_SYSTEM":"UTC","REF_FRAME":"TEME","MEAN_MOTION_DDOT":"0.0000000000000","RA_OF_ASC_NODE":"77.7421","MEAN_ANOMALY":"321.2278","REV_AT_EPOCH":"369","COUNTRY_CODE":"US","TLE_LINE1":"1 49441U 21104AK  22036.58334491 -.00654693  00000-0 -94964-2 0  9999","RCS_SIZE":"LARGE"}];
